{"type": "FeatureCollection", "features": [ {"type": "Feature", "properties": {"norad_id": 33825, "name": "COSMOS 2251 DEB", "group": "cosmos-2251-debris", "lat": -12.331837782734263, "lon": -131.11351291616293, "alt_km": 725.541241388868, "timestamp": "2025-12-03T17:47:51.110831+00:00", "meta": {"OBJECT_NAME": "COSMOS 2251 DEB", "OBJECT_ID": "1993-036BS", "EPOCH": "2025-12-03T12:31:51.053088", "MEAN_MOTION": 14.69626721, "ECCENTRICITY": 0.0084101, "INCLINATION": 73.9862, "RA_OF_ASC_NODE": 45.7131, "ARG_OF_PERICENTER": 15.0887, "MEAN_ANOMALY": 97.0717, "EPHEMERIS_TYPE": 0, "CLASSIFICATION_TYPE": "U", "NORAD_CAT_ID": 33825, "ELEMENT_SET_NO": 999, "REV_AT_EPOCH": 88744, "BSTAR": 0.0011434, "MEAN_MOTION_DOT": 7.152e-05, "MEAN_MOTION_DDOT": 0}, "tle": {"line1": "1 33825U 93036BS  25337.52211867  .00007152  00000+0  11434-2 0  9993", "line2": "2 33825  73.9862  45.7131 0084101  15.0887  97.0717 14.69626721887448"}}, "geometry": {"type": "Point", "coordinates": [-131.11351291616293, -12.331837782734263]}}, {"type": "Feature", "properties": {"norad_id": 33826, "name": "COSMOS 2251 DEB", "group": "cosmos-2251-debris", "lat": -50.71984728149356, "lon": 46.34679939839796, "alt_km": 785.5742486954268, "timestamp": "2025-12-03T17:47:51.110842+00:00", "meta": {"OBJECT_NAME": "COSMOS 2251 DEB", "OBJECT_ID": "1993-036BT", "EPOCH": "2025-12-03T08:25:03.821952", "MEAN_MOTION": 14.51558516, "ECCENTRICITY": 0.008438, "INCLINATION": 74.0654, "RA_OF_ASC_NODE": 67.5256, "ARG_OF_PERICENTER": 114.8107, "MEAN_ANOMALY": 310.3912, "EPHEMERIS_TYPE": 0, "CLASSIFICATION_TYPE": "U", "NORAD_CAT_ID": 33826, "ELEMENT_SET_NO": 999, "REV_AT_EPOCH": 87633, "BSTAR": 0.0020718, "MEAN_MOTION_DOT": 8.667e-05, "MEAN_MOTION_DDOT": 0}, "tle": {"line1": "1 33826U 93036BT  25337.35073868  .00008667  00000+0  20718-2 0  9999", "line2": "2 33826  74.0654  67.5256 0084380 114.8107 310.3912 14.51558516876333"}}, "geometry": {"type": "Point", "coordinates": [46.34679939839796, -50.71984728149356]}}, {"type": "Feature", "properties": {"norad_id": 33828, "name": "COSMOS 2251 DEB", "group": "cosmos-2251-debris", "lat": 71.85558657006735, "lon": -44.38893719576802, "alt_km": 744.9424865116098, "timestamp": "2025-12-03T17:47:51.110853+00:00", "meta": {"OBJECT_NAME": "COSMOS 2251 DEB", "OBJECT_ID": "1993-036BV", "EPOCH": "2025-12-03T04:27:28.281600", "MEAN_MOTION": 14.4427696, "ECCENTRICITY": 0.00293184, "INCLINATION": 74.0475, "RA_OF_ASC_NODE": 255.8546, "ARG_OF_PERICENTER": 330.2883, "MEAN_ANOMALY": 101.9162, "EPHEMERIS_TYPE": 0, "CLASSIFICATION_TYPE": "U", "NORAD_CAT_ID": 33828, "ELEMENT_SET_NO": 999, "REV_AT_EPOCH": 88175, "BSTAR": 0.00074798734, "MEAN_MOTION_DOT": 2.559e-05, "MEAN_MOTION_DDOT": 0}, "tle": {"line1": "1 33828U 93036BV  25337.18574400  .00002559  00000+0  74799-3 0  9993", "line2": "2 33828  74.0475 255.8546 0029318 330.2883 101.9162 14.44276960881750"}}, "geometry": {"type": "Point", "coordinates": [-44.38893719576802, 71.85558657006735]}}, {"type": "Feature", "properties": {"norad_id": 33830, "name": "COSMOS 2251 DEB", "group": "cosmos-2251-debris", "lat": -15.527234940418461, "lon": -116.55845105380716, "alt_km": 617.582268674324, "timestamp": "2025-12-03T17:47:51.110864+00:00", "meta": {"OBJECT_NAME": "COSMOS 2251 DEB", "OBJECT_ID": "1993-036BX", "EPOCH": "2025-12-03T12:08:48.927840", "MEAN_MOTION": 14.76692997, "ECCENTRICITY": 0.0042183, "INCLINATION": 74.0333, "RA_OF_ASC_NODE": 248.4653, "ARG_OF_PERICENTER": 10.5241, "MEAN_ANOMALY": 162.5246, "EPHEMERIS_TYPE": 0, "CLASSIFICATION_TYPE": "U", "NORAD_CAT_ID": 33830, "ELEMENT_SET_NO": 999, "REV_AT_EPOCH": 89335, "BSTAR": 0.0014629, "MEAN_MOTION_DOT": 0.00010371, "MEAN_MOTION_DDOT": 0}, "tle": {"line1": "1 33830U 93036BX  25337.50612185  .00010371  00000+0  14629-2 0  9991", "line2": "2 33830  74.0333 248.4653 0042183  10.5241 162.5246 14.76692997893356"}}, "geometry": {"type": "Point", "coordinates": [-116.55845105380716, -15.527234940418461]}}, {"type": "Feature", "properties": {"norad_id": 33832, "name": "COSMOS 2251 DEB", "group": "cosmos-2251-debris", "lat": -19.308823894790333, "lon": 52.889022760455525, "alt_km": 687.378190773773, "timestamp": "2025-12-03T17:47:51.110875+00:00", "meta": {"OBJECT_NAME": "COSMOS 2251 DEB", "OBJECT_ID": "1993-036BZ", "EPOCH": "2025-12-03T11:08:10.798368", "MEAN_MOTION": 14.60447623, "ECCENTRICITY": 0.0025654, "INCLINATION": 74.0553, "RA_OF_ASC_NODE": 227.6694, "ARG_OF_PERICENTER": 260.5825, "MEAN_ANOMALY": 281.0224, "EPHEMERIS_TYPE": 0, "CLASSIFICATION_TYPE": "U", "NORAD_CAT_ID": 33832, "ELEMENT_SET_NO": 999, "REV_AT_EPOCH": 88289, "BSTAR": 0.0019398, "MEAN_MOTION_DOT": 9.427e-05, "MEAN_MOTION_DDOT": 0}, "tle": {"line1": "1 33832U 93036BZ  25337.46401387  .00009427  00000+0  19398-2 0  9996", "line2": "2 33832  74.0553 227.6694 0025654 260.5825 281.0224 14.60447623882892"}}, "geometry": {"type": "Point", "coordinates": [52.889022760455525, -19.308823894790333]}}, {"type": "Feature", "properties": {"norad_id": 33835, "name": "COSMOS 2251 DEB", "group": "cosmos-2251-debris", "lat": -15.948924826440429, "lon": 113.63068607601912, "alt_km": 729.60270352309, "timestamp": "2025-12-03T17:47:51.110885+00:00", "meta": {"OBJECT_NAME": "COSMOS 2251 DEB", "OBJECT_ID": "1993-036CC", "EPOCH": "2025-12-02T19:28:26.300928", "MEAN_MOTION": 14.62061225, "ECCENTRICITY": 0.00557211, "INCLINATION": 74.0555, "RA_OF_ASC_NODE": 120.095, "ARG_OF_PERICENTER": 176.3218, "MEAN_ANOMALY": 313.2995, "EPHEMERIS_TYPE": 0, "CLASSIFICATION_TYPE": "U", "NORAD_CAT_ID": 33835, "ELEMENT_SET_NO": 999, "REV_AT_EPOCH": 88644, "BSTAR": 0.0016115926, "MEAN_MOTION_DOT": 8.252e-05, "MEAN_MOTION_DDOT": 0}, "tle": {"line1": "1 33835U 93036CC  25336.81141552  .00008252  00000+0  16116-2 0  9992", "line2": "2 33835  74.0555 120.0950 0055721 176.3218 313.2995 14.62061225886446"}}, "geometry": {"type": "Point", "coordinates": [113.63068607601912, -15.948924826440429]}}, {"type": "Feature", "properties": {"norad_id": 33836, "name": "COSMOS 2251 DEB", "group": "cosmos-2251-debris", "lat": 12.48481832822941, "lon": 93.0585115216738, "alt_km": 619.2748518410945, "timestamp": "2025-12-03T17:47:51.110896+00:00", "meta": {"OBJECT_NAME": "COSMOS 2251 DEB", "OBJECT_ID": "1993-036CD", "EPOCH": "2025-12-03T06:13:05.961792", "MEAN_MOTION": 14.79308618, "ECCENTRICITY": 0.002242, "INCLINATION": 73.9973, "RA_OF_ASC_NODE": 277.6529, "ARG_OF_PERICENTER": 134.2793, "MEAN_ANOMALY": 344.1464, "EPHEMERIS_TYPE": 0, "CLASSIFICATION_TYPE": "U", "NORAD_CAT_ID": 33836, "ELEMENT_SET_NO": 999, "REV_AT_EPOCH": 63948, "BSTAR": 0.0017963, "MEAN_MOTION_DOT": 0.00013419, "MEAN_MOTION_DDOT": 0}, "tle": {"line1": "1 33836U 93036CD  25337.25909678  .00013419  00000+0  17963-2 0  9995", "line2": "2 33836  73.9973 277.6529 0022420 134.2793 344.1464 14.79308618639483"}}, "geometry": {"type": "Point", "coordinates": [93.0585115216738, 12.48481832822941]}}, {"type": "Feature", "properties": {"norad_id": 33837, "name": "COSMOS 2251 DEB", "group": "cosmos-2251-debris", "lat": -2.0223933736352584, "lon": 71.95788961295573, "alt_km": 714.5186179142829, "timestamp": "2025-12-03T17:47:51.110906+00:00", "meta": {"OBJECT_NAME": "COSMOS 2251 DEB", "OBJECT_ID": "1993-036CE", "EPOCH": "2025-12-03T07:52:36.048000", "MEAN_MOTION": 14.50667168, "ECCENTRICITY": 0.0035633, "INCLINATION": 74.0128, "RA_OF_ASC_NODE": 73.3158, "ARG_OF_PERICENTER": 296.5894, "MEAN_ANOMALY": 63.1617, "EPHEMERIS_TYPE": 0, "CLASSIFICATION_TYPE": "U", "NORAD_CAT_ID": 33837, "ELEMENT_SET_NO": 999, "REV_AT_EPOCH": 88659, "BSTAR": 0.00042701, "MEAN_MOTION_DOT": 1.662e-05, "MEAN_MOTION_DDOT": 0}, "tle": {"line1": "1 33837U 93036CE  25337.32819500  .00001662  00000+0  42701-3 0  9994", "line2": "2 33837  74.0128  73.3158 0035633 296.5894  63.1617 14.50667168886592"}}, "geometry": {"type": "Point", "coordinates": [71.95788961295573, -2.0223933736352584]}}, {"type": "Feature", "properties": {"norad_id": 33838, "name": "COSMOS 2251 DEB", "group": "cosmos-2251-debris", "lat": -50.995875936791684, "lon": 145.96558124281793, "alt_km": 719.0391666045589, "timestamp": "2025-12-03T17:47:51.110916+00:00", "meta": {"OBJECT_NAME": "COSMOS 2251 DEB", "OBJECT_ID": "1993-036CF", "EPOCH": "2025-12-03T11:31:16.782240", "MEAN_MOTION": 14.48318154, "ECCENTRICITY": 0.002738, "INCLINATION": 74.0356, "RA_OF_ASC_NODE": 167.1536, "ARG_OF_PERICENTER": 290.2736, "MEAN_ANOMALY": 92.8437, "EPHEMERIS_TYPE": 0, "CLASSIFICATION_TYPE": "U", "NORAD_CAT_ID": 33838, "ELEMENT_SET_NO": 999, "REV_AT_EPOCH": 88435, "BSTAR": 0.00053612, "MEAN_MOTION_DOT": 1.986e-05, "MEAN_MOTION_DDOT": 0}, "tle": {"line1": "1 33838U 93036CF  25337.48005535  .00001986  00000+0  53612-3 0  9999", "line2": "2 33838  74.0356 167.1536 0027380 290.2736  92.8437 14.48318154884350"}}, "geometry": {"type": "Point", "coordinates": [145.96558124281793, -50.995875936791684]}}, {"type": "Feature", "properties": {"norad_id": 33839, "name": "COSMOS 2251 DEB", "group": "cosmos-2251-debris", "lat": 67.372117740631, "lon": -92.87203816034855, "alt_km": 677.7694574331863, "timestamp": "2025-12-03T17:47:51.110927+00:00", "meta": {"OBJECT_NAME": "COSMOS 2251 DEB", "OBJECT_ID": "1993-036CG", "EPOCH": "2025-12-03T03:25:22.042272", "MEAN_MOTION": 14.64373974, "ECCENTRICITY": 0.00848223, "INCLINATION": 74.0399, "RA_OF_ASC_NODE": 224.9194, "ARG_OF_PERICENTER": 339.2319, "MEAN_ANOMALY": 177.3871, "EPHEMERIS_TYPE": 0, "CLASSIFICATION_TYPE": "U", "NORAD_CAT_ID": 33839, "ELEMENT_SET_NO": 999, "REV_AT_EPOCH": 89439, "BSTAR": 0.00040044968, "MEAN_MOTION_DOT": 2.197e-05, "MEAN_MOTION_DDOT": 0}, "tle": {"line1": "1 33839U 93036CG  25337.14261623  .00002197  00000+0  40045-3 0  9996", "line2": "2 33839  74.0399 224.9194 0084822 339.2319 177.3871 14.64373974894390"}}, "geometry": {"type": "Point", "coordinates": [-92.87203816034855, 67.372117740631]}}]}